NORAD_CAT_ID,OBJECT_NAME,OBJECT_TYPE,EPOCH,MEAN_MOTION,ECCENTRICITY,INCLINATION,RA_OF_ASC_NODE,ARG_OF_PERICENTER,MEAN_ANOMALY,BSTAR,MEAN_MOTION_DOT,MEAN_MOTION_DDOT,TLE_LINE0,TLE_LINE1,TLE_LINE2,SEMIMAJOR_AXIS,PERIOD,APOGEE,PERIGEE,DECAYED
55768.0,STARLINK-5583,PAYLOAD,2023-10-08 17:44:55,14.98347506,0.0002849,69.999,290.7659,275.3323,84.7511,-0.00034201,-4.173e-05,0.0,0 STARLINK-5583,1 55768U 23028AD  23281.73952675 -.00004173  00000-0 -34201-3 0  9996,2 55768  69.9990 290.7659 0002849 275.3323  84.7511 14.98347506 34269,6950.139,96.106,573.984,570.024,0.0
55768.0,STARLINK-5583,PAYLOAD,2023-10-09 03:21:43,14.983295,0.0002831,69.9985,289.7565,269.7733,90.3102,-1.6782e-05,-2.93e-06,0.0,0 STARLINK-5583,1 55768U 23028AD  23282.14009031 -.00000293  00000-0 -16782-4 0  9995,2 55768  69.9985 289.7565 0002831 269.7733  90.3102 14.98329500 34320,6950.194,96.107,574.027,570.092,0.0
55768.0,STARLINK-5583,PAYLOAD,2023-10-09 09:46:15,14.98333862,0.0002705,69.999,289.0832,270.4866,89.5983,4.2361e-05,4.13e-06,0.0,0 STARLINK-5583,1 55768U 23028AD  23282.40712563  .00000413  00000-0  42361-4 0  9999,2 55768  69.9990 289.0832 0002705 270.4866  89.5983 14.98333862 34370,6950.181,96.107,573.926,570.166,0.0
55768.0,STARLINK-5583,PAYLOAD,2023-10-09 17:46:55,14.98332046,0.0002611,69.9992,288.2419,267.8803,92.2057,6.8996e-05,7.3e-06,0.0,0 STARLINK-5583,1 55768U 23028AD  23282.74092545  .00000730  00000-0  68996-4 0  9991,2 55768  69.9992 288.2419 0002611 267.8803  92.2057 14.98332046 34423,6950.187,96.107,573.866,570.237,0.0
55768.0,STARLINK-5583,PAYLOAD,2023-10-10 09:48:16,14.98331711,0.0002947,69.9983,286.5584,268.689,91.3931,4.0668e-06,-4.4e-07,0.0,0 STARLINK-5583,1 55768U 23028AD  23283.40852569 -.00000044  00000-0  40668-5 0  9991,2 55768  69.9983 286.5584 0002947 268.6890  91.3931 14.98331711 34513,6950.188,96.107,574.101,570.004,0.0
55768.0,STARLINK-5583,PAYLOAD,2023-10-10 17:48:57,14.98328278,0.0002696,69.999,285.7167,268.9788,91.1062,-3.5158e-05,-5.12e-06,0.0,0 STARLINK-5583,1 55768U 23028AD  23283.74232937 -.00000512  00000-0 -35158-4 0  9997,2 55768  69.9990 285.7167 0002696 268.9788  91.1062 14.98328278 34572,6950.198,96.107,573.937,570.189,0.0
55768.0,STARLINK-5583,PAYLOAD,2023-10-11 03:25:45,14.98324625,0.0002894,69.9983,284.7062,270.8129,89.2699,-5.0266e-05,-6.93e-06,0.0,0 STARLINK-5583,1 55768U 23028AD  23284.14289240 -.00000693  00000-0 -50266-4 0  9998,2 55768  69.9983 284.7062 0002894 270.8129  89.2699 14.98324625 34620,6950.21,96.107,574.086,570.063,0.0
55768.0,STARLINK-5583,PAYLOAD,2023-10-11 09:50:18,14.9832622,0.0003049,69.9984,284.0329,269.5409,90.5401,-4.3536e-05,-6.12e-06,0.0,0 STARLINK-5583,1 55768U 23028AD  23284.40993120 -.00000612  00000-0 -43536-4 0  9999,2 55768  69.9984 284.0329 0003049 269.5409  90.5401 14.98326220 34673,6950.205,96.107,574.189,569.95,0.0
55768.0,STARLINK-5583,PAYLOAD,2023-10-12 05:03:54,14.9832551,0.0002774,69.9996,282.013,270.7895,89.2946,1.6631e-05,1.05e-06,0.0,0 STARLINK-5583,1 55768U 23028AD  23285.21105116  .00000105  00000-0  16631-4 0  9990,2 55768  69.9996 282.0130 0002774 270.7895  89.2946 14.98325510 34783,6950.207,96.107,574.0,570.144,0.0
55768.0,STARLINK-5583,PAYLOAD,2023-10-12 09:52:18,14.98330007,0.000288,69.999,281.5078,267.9515,92.1315,2.9166e-05,2.55e-06,0.0,0 STARLINK-5583,1 55768U 23028AD  23285.41132797  .00000255  00000-0  29166-4 0  9990,2 55768  69.9990 281.5078 0002880 267.9515  92.1315 14.98330007 34822,6950.193,96.107,574.06,570.056,0.0
55768.0,STARLINK-5583,PAYLOAD,2023-10-13 05:05:55,14.98328303,0.0002871,69.9996,279.4885,270.45,89.633,7.2187e-05,7.68e-06,0.0,0 STARLINK-5583,1 55768U 23028AD  23286.21244824  .00000768  00000-0  72187-4 0  9994,2 55768  69.9996 279.4885 0002871 270.4500  89.6330 14.98328303 34939,6950.198,96.107,574.059,570.068,0.0
55768.0,STARLINK-5583,PAYLOAD,2023-10-13 09:54:19,14.98314149,0.0002699,69.9995,278.9833,269.2243,90.8607,0.0003947,4.618e-05,0.0,0 STARLINK-5583,1 55768U 23028AD  23286.41272924  .00004618  00000-0  39470-3 0  9993,2 55768  69.9995 278.9833 0002699 269.2243  90.8607 14.98314149 34971,6950.242,96.108,573.983,570.231,0.0
55768.0,STARLINK-5583,PAYLOAD,2023-10-13 16:18:51,14.9836061,0.0002907,70.0,278.3098,273.5231,86.5596,-0.00045513,-5.524e-05,0.0,0 STARLINK-5583,1 55768U 23028AD  23286.67975861 -.00005524  00000-0 -45513-3 0  9995,2 55768  70.0000 278.3098 0002907 273.5231  86.5596 14.98360610 35003,6950.098,96.105,573.984,569.943,0.0
55768.0,STARLINK-5583,PAYLOAD,2023-10-14 01:55:40,14.98337078,0.0002606,69.9995,277.3002,272.8447,87.2413,-4.9855e-05,-6.88e-06,0.0,0 STARLINK-5583,1 55768U 23028AD  23287.08032585 -.00000688  00000-0 -49855-4 0  9998,2 55768  69.9995 277.3002 0002606 272.8447  87.2413 14.98337078 35068,6950.171,96.107,573.847,570.225,0.0
55768.0,STARLINK-5583,PAYLOAD,2023-10-14 09:56:19,14.98353975,0.0002424,69.9995,276.4586,263.577,96.5113,-0.00026487,-3.254e-05,0.0,0 STARLINK-5583,1 55768U 23028AD  23287.41411785 -.00003254  00000-0 -26487-3 0  9995,2 55768  69.9995 276.4586 0002424 263.5770  96.5113 14.98353975 35119,6950.119,96.105,573.668,570.299,0.0
55768.0,STARLINK-5583,PAYLOAD,2023-10-14 22:45:25,14.98323951,0.0002873,69.9997,275.1123,268.2968,91.7862,-0.00011849,-1.506e-05,0.0,0 STARLINK-5583,1 55768U 23028AD  23287.94821428 -.00001506  00000-0 -11849-3 0  9996,2 55768  69.9997 275.1123 0002873 268.2968  91.7862 14.98323951 35202,6950.212,96.107,574.073,570.08,0.0
55768.0,STARLINK-5583,PAYLOAD,2023-10-15 01:57:41,14.98322385,0.0002927,69.9995,274.7756,268.565,91.5173,-0.00013395,-1.691e-05,0.0,0 STARLINK-5583,1 55768U 23028AD  23288.08173606 -.00001691  00000-0 -13395-3 0  9993,2 55768  69.9995 274.7756 0002927 268.5650  91.5173 14.98322385 35212,6950.216,96.107,574.116,570.047,0.0
55768.0,STARLINK-5583,PAYLOAD,2023-10-15 09:58:22,14.98322308,0.0002935,69.9996,273.934,267.5777,92.5046,-0.00012263,-1.556e-05,0.0,0 STARLINK-5583,1 55768U 23028AD  23288.41553707 -.00001556  00000-0 -12263-3 0  9997,2 55768  69.9996 273.9340 0002935 267.5777  92.5046 14.98322308 35272,6950.217,96.107,574.122,570.042,0.0
55768.0,STARLINK-5583,PAYLOAD,2023-10-15 16:22:54,14.98324521,0.0003004,69.9995,273.2608,267.8927,92.1888,-1.8712e-05,-3.16e-06,0.0,0 STARLINK-5583,1 55768U 23028AD  23288.68257373 -.00000316  00000-0 -18712-4 0  9995,2 55768  69.9995 273.2608 0003004 267.8927  92.1888 14.98324521 35313,6950.21,96.107,574.163,569.987,0.0
55768.0,STARLINK-5583,PAYLOAD,2023-10-16 01:59:42,14.98331965,0.0002988,69.9993,272.2507,267.3541,92.7276,-5.3994e-06,-1.57e-06,0.0,0 STARLINK-5583,1 55768U 23028AD  23289.08312857 -.00000157  00000-0 -53994-5 0  9994,2 55768  69.9993 272.2507 0002988 267.3541  92.7276 14.98331965 35367,6950.187,96.107,574.129,569.975,0.0
55768.0,STARLINK-5583,PAYLOAD,2023-10-16 08:24:14,14.98334733,0.0003094,69.999,271.5766,268.1349,91.9455,2.3809e-05,1.91e-06,0.0,0 STARLINK-5583,1 55768U 23028AD  23289.35016539  .00000191  00000-0  23809-4 0  9999,2 55768  69.9990 271.5766 0003094 268.1349  91.9455 14.98334733 35419,6950.178,96.107,574.194,569.893,0.0
55768.0,STARLINK-5583,PAYLOAD,2023-10-17 08:26:15,14.98331039,0.0003111,69.9992,269.0522,267.7846,92.2957,0.00014835,1.678e-05,0.0,0 STARLINK-5583,1 55768U 23028AD  23290.35156434  .00001678  00000-0  14835-3 0  9999,2 55768  69.9992 269.0522 0003111 267.7846  92.2957 14.98331039 35552,6950.19,96.107,574.217,569.892,0.0
55768.0,STARLINK-5583,PAYLOAD,2023-10-18 02:03:44,14.98332187,0.0002915,69.9998,267.2003,269.5066,90.5759,8.8597e-06,1.3e-07,0.0,0 STARLINK-5583,1 55768U 23028AD  23291.08592737  .00000013  00000-0  88597-5 0  9990,2 55768  69.9998 267.2003 0002915 269.5066  90.5759 14.98332187 35676,6950.186,96.107,574.077,570.025,0.0
55768.0,STARLINK-5583,PAYLOAD,2023-10-18 05:16:00,14.98332512,0.0002919,69.9997,266.8635,267.7507,92.3318,-1.0475e-05,-2.18e-06,0.0,0 STARLINK-5583,1 55768U 23028AD  23291.21944775 -.00000218  00000-0 -10475-4 0  9996,2 55768  69.9997 266.8635 0002919 267.7507  92.3318 14.98332512 35690,6950.185,96.107,574.079,570.021,0.0
55768.0,STARLINK-5583,PAYLOAD,2023-10-19 05:17:59,14.98380555,0.0002797,70.0006,264.3378,266.1348,93.9492,-0.0004573,-5.552e-05,0.0,0 STARLINK-5583,1 55768U 23028AD  23292.22083179 -.00005552  00000-0 -45730-3 0  9997,2 55768  70.0006 264.3378 0002797 266.1348  93.9492 14.98380555 35837,6950.037,96.104,573.845,569.958,0.0
55768.0,STARLINK-5583,PAYLOAD,2023-10-19 08:30:16,14.98339962,0.0003031,69.9997,264.0021,269.604,90.4771,1.4813e-05,8.4e-07,0.0,0 STARLINK-5583,1 55768U 23028AD  23292.35435882  .00000084  00000-0  14813-4 0  9995,2 55768  69.9997 264.0021 0003031 269.6040  90.4771 14.98339962 35854,6950.162,96.106,574.134,569.92,0.0
55768.0,STARLINK-5583,PAYLOAD,2023-10-19 21:19:21,14.98328861,0.0002822,70.0006,262.6576,268.1857,91.8979,3.7842e-05,3.59e-06,0.0,0 STARLINK-5583,1 55768U 23028AD  23292.88844348  .00000359  00000-0  37842-4 0  9996,2 55768  70.0006 262.6576 0002822 268.1857  91.8979 14.98328861 35945,6950.196,96.107,574.023,570.1,0.0
55768.0,STARLINK-5583,PAYLOAD,2023-10-20 02:07:45,14.98327496,0.0002869,70.0007,262.1516,269.2808,90.8022,3.924e-06,-4.6e-07,0.0,0 STARLINK-5583,1 55768U 23028AD  23293.08872589 -.00000046  00000-0  39240-5 0  9996,2 55768  70.0007 262.1516 0002869 269.2808  90.8022 14.98327496 35967,6950.201,96.107,574.06,570.072,0.0
55768.0,STARLINK-5583,PAYLOAD,2023-10-20 08:32:18,14.98329883,0.0002597,70.0005,261.4776,265.542,94.5442,1.1126e-05,4e-07,0.0,0 STARLINK-5583,1 55768U 23028AD  23293.35576408  .00000040  00000-0  11126-4 0  9992,2 55768  70.0005 261.4776 0002597 265.5420  94.5442 14.98329883 36018,6950.193,96.107,573.863,570.253,0.0
55768.0,STARLINK-5583,PAYLOAD,2023-10-21 02:09:47,14.98329604,0.0002525,70.0004,259.6261,254.1664,105.9217,-0.00021139,-2.614e-05,0.0,0 STARLINK-5583,1 55768U 23028AD  23294.09013229 -.00002614  00000-0 -21139-3 0  9996,2 55768  70.0004 259.6261 0002525 254.1664 105.9217 14.98329604 36119,6950.194,96.107,573.814,570.304,0.0
